{
    "links": {
        "self": "http://www.neowsapp.com/rest/v1/neo/3092308?api_key=iIulBulltgU6a56xZRHN4H3l9WmuAYTsLGpBGhQ2"
    },
    "id": "3092308",
    "neo_reference_id": "3092308",
    "name": "(2001 QD34)",
    "designation": "2001 QD34",
    "nasa_jpl_url": "http://ssd.jpl.nasa.gov/sbdb.cgi?sstr=3092308",
    "absolute_magnitude_h": 22.8,
    "estimated_diameter": {
        "kilometers": {
            "estimated_diameter_min": 0.0732073989,
            "estimated_diameter_max": 0.1636967205
        },
        "meters": {
            "estimated_diameter_min": 73.2073989347,
            "estimated_diameter_max": 163.696720474
        },
        "miles": {
            "estimated_diameter_min": 0.0454889547,
            "estimated_diameter_max": 0.1017163949
        },
        "feet": {
            "estimated_diameter_min": 240.181762721,
            "estimated_diameter_max": 537.0627483999
        }
    },
    "is_potentially_hazardous_asteroid": false,
    "close_approach_data": [
        {
            "close_approach_date": "2001-08-04",
            "close_approach_date_full": "2001-Aug-04 14:15",
            "epoch_date_close_approach": 996934500000,
            "relative_velocity": {
                "kilometers_per_second": "8.2660717913",
                "kilometers_per_hour": "29757.8584485876",
                "miles_per_hour": "18490.3759899015"
            },
            "miss_distance": {
                "astronomical": "0.0597564115",
                "lunar": "23.2452440735",
                "kilometers": "8939431.879243505",
                "miles": "5554705.394650169"
            },
            "orbiting_body": "Earth"
        }
    ],
    "orbital_data": {
        "orbit_id": "9",
        "orbit_determination_date": "2017-04-06 09:16:14",
        "first_observation_date": "2001-08-17",
        "last_observation_date": "2001-08-27",
        "data_arc_in_days": 10,
        "observations_used": 30,
        "orbit_uncertainty": "8",
        "minimum_orbit_intersection": ".0585425",
        "jupiter_tisserand_invariant": "3.524",
        "epoch_osculation": "2452142.5",
        "eccentricity": ".5130627273899705",
        "semi_major_axis": "2.136952965168755",
        "inclination": "8.244894461946968",
        "ascending_node_longitude": "149.1875469596669",
        "orbital_period": "1141.013733956103",
        "perihelion_distance": "1.040562048555189",
        "perihelion_argument": "146.8638392351582",
        "aphelion_distance": "3.233343881782321",
        "perihelion_time": "2452111.418006401461",
        "mean_anomaly": "9.806645934644397",
        "mean_motion": ".3155089104421331",
        "equinox": "J2000",
        "orbit_class": {
            "orbit_class_type": "AMO",
            "orbit_class_description": "Near-Earth asteroid orbits similar to that of 1221 Amor",
            "orbit_class_range": "1.017 AU < q (perihelion) < 1.3 AU"
        }
    },
    "is_sentry_object": false
}